STARLINK-35585          
1 66170U 25240AA  25311.50920492  .00252120  00000+0  16659-2 0  9996
2 66170  53.1552 273.7733 0002363 181.1978 178.9037 15.74311484  3235
STARLINK-35606          
1 66171U 25240AB  25310.17622642  .00016006  00000+0  10029-3 0  9992
2 66171  53.1527 280.3906 0004588   2.4560 357.6483 15.77021791  3027
STARLINK-35627          
1 66172U 25240AC  25311.70066263 -.00935338  00000+0 -76359-2 0  9991
2 66172  53.1552 272.8360 0008434  80.7262 279.4710 15.72495085  3264
STARLINK-35634          
1 66173U 25240AD  25310.42945107 -.00070787  00000+0 -43338-3 0  9993
2 66173  53.1517 279.1265 0002559  80.5547 279.5763 15.76656279  3061
STARLINK-35363          
1 66178U 25243B   25311.79626237 -.02002432  00000+0 -14467-1 0  9995
2 66178  53.1530  95.5741 0002144 166.5017 193.6062 15.76245863  1932
STARLINK-35346          
1 66179U 25243C   25311.47953463  .00693407  00000+0  34164-2 0  9996
2 66179  53.1529  97.1540 0013581 300.1954  59.7722 15.79650414  1883
STARLINK-35335          
1 66180U 25243D   25311.67010613  .01483595  00000+0  67467-2 0  9999
2 66180  53.1526  96.2097 0020360 218.0280 141.9307 15.80332751  1911
STARLINK-35342          
1 66181U 25243E   25311.79766738 -.00572858  00000+0 -38824-2 0  9996
2 66181  53.1533  95.5839 0002273  28.4990 331.6154 15.75861590  1932
STARLINK-35333          
1 66182U 25243F   25311.67080745 -.00024218  00000+0 -13283-3 0  9996
2 66182  53.1530  96.2144 0009766 275.5030  84.4877 15.78484849  1915
STARLINK-35310          
1 66183U 25243G   25311.79798921 -.01851319  00000+0 -13138-1 0  9990
2 66183  53.1532  95.5863 0003068 317.1755  42.9026 15.76358087  1933
STARLINK-35317          
1 66184U 25243H   25311.67549610 -.00008256  00000+0 -46771-4 0  9992
2 66184  53.1529  96.2465 0001796   4.0499 356.0536 15.76592857  1917
STARLINK-35377          
1 66185U 25243J   25311.23228093  .01513157  00000+0  68401-2 0  9996
2 66185  53.1511  98.4609 0011233 213.3629 146.6687 15.80560768  1843
STARLINK-35365          
1 66186U 25243K   25311.80368604  .00222913  00000+0  13016-2 0  9991
2 66186  53.1540  95.6269 0013148 178.6158 181.4902 15.77117801  1933
STARLINK-35350          
1 66187U 25243L   25311.80299832 -.01253281  00000+0 -86845-2 0  9993
2 66187  53.1531  95.6211 0003364  27.7172 332.4028 15.76682764  1931
STARLINK-35041          
1 66188U 25243M   25311.80157041 -.00877048  00000+0 -59976-2 0  9996
2 66188  53.1531  95.6114 0000374  47.1668 312.9385 15.76491875  1938
STARLINK-34694          
1 66189U 25243N   25311.80085071 -.01045909  00000+0 -72013-2 0  9991
2 66189  53.1531  95.6066 0000608  25.2739 334.8311 15.76369441  1936
