[{"OBJECT_NAME":"STARLINK-35585","OBJECT_ID":"2025-240AA","EPOCH":"2025-11-07T12:13:15.305088","MEAN_MOTION":15.74311484,"ECCENTRICITY":0.0002363,"INCLINATION":53.1552,"RA_OF_ASC_NODE":273.7733,"ARG_OF_PERICENTER":181.1978,"MEAN_ANOMALY":178.9037,"EPHEMERIS_TYPE":0,"CLASSIFICATION_TYPE":"U","NORAD_CAT_ID":66170,"ELEMENT_SET_NO":999,"REV_AT_EPOCH":323,"BSTAR":0.0016659,"MEAN_MOTION_DOT":0.0025212,"MEAN_MOTION_DDOT":0},{"OBJECT_NAME":"STARLINK-35606","OBJECT_ID":"2025-240AB","EPOCH":"2025-11-06T04:13:45.962688","MEAN_MOTION":15.77021791,"ECCENTRICITY":0.00045884,"INCLINATION":53.1527,"RA_OF_ASC_NODE":280.3906,"ARG_OF_PERICENTER":2.456,"MEAN_ANOMALY":357.6483,"EPHEMERIS_TYPE":0,"CLASSIFICATION_TYPE":"U","NORAD_CAT_ID":66171,"ELEMENT_SET_NO":999,"REV_AT_EPOCH":302,"BSTAR":0.00010028988,"MEAN_MOTION_DOT":0.00016006,"MEAN_MOTION_DDOT":0},{"OBJECT_NAME":"STARLINK-35627","OBJECT_ID":"2025-240AC","EPOCH":"2025-11-07T16:48:57.251232","MEAN_MOTION":15.72495085,"ECCENTRICITY":0.0008434,"INCLINATION":53.1552,"RA_OF_ASC_NODE":272.836,"ARG_OF_PERICENTER":80.7262,"MEAN_ANOMALY":279.471,"EPHEMERIS_TYPE":0,"CLASSIFICATION_TYPE":"U","NORAD_CAT_ID":66172,"ELEMENT_SET_NO":999,"REV_AT_EPOCH":326,"BSTAR":-0.0076359,"MEAN_MOTION_DOT":-0.00935338,"MEAN_MOTION_DDOT":0},{"OBJECT_NAME":"STARLINK-35634","OBJECT_ID":"2025-240AD","EPOCH":"2025-11-06T10:18:24.572448","MEAN_MOTION":15.76656279,"ECCENTRICITY":0.00025591,"INCLINATION":53.1517,"RA_OF_ASC_NODE":279.1265,"ARG_OF_PERICENTER":80.5547,"MEAN_ANOMALY":279.5763,"EPHEMERIS_TYPE":0,"CLASSIFICATION_TYPE":"U","NORAD_CAT_ID":66173,"ELEMENT_SET_NO":999,"REV_AT_EPOCH":306,"BSTAR":-0.00043337619,"MEAN_MOTION_DOT":-0.00070787,"MEAN_MOTION_DDOT":0},{"OBJECT_NAME":"STARLINK-35363","OBJECT_ID":"2025-243B","EPOCH":"2025-11-07T19:06:37.068768","MEAN_MOTION":15.76245863,"ECCENTRICITY":0.0002144,"INCLINATION":53.153,"RA_OF_ASC_NODE":95.5741,"ARG_OF_PERICENTER":166.5017,"MEAN_ANOMALY":193.6062,"EPHEMERIS_TYPE":0,"CLASSIFICATION_TYPE":"U","NORAD_CAT_ID":66178,"ELEMENT_SET_NO":999,"REV_AT_EPOCH":193,"BSTAR":-0.014467,"MEAN_MOTION_DOT":-0.02002432,"MEAN_MOTION_DDOT":0},{"OBJECT_NAME":"STARLINK-35346","OBJECT_ID":"2025-243C","EPOCH":"2025-11-07T11:30:31.792032","MEAN_MOTION":15.79650414,"ECCENTRICITY":0.0013581,"INCLINATION":53.1529,"RA_OF_ASC_NODE":97.154,"ARG_OF_PERICENTER":300.1954,"MEAN_ANOMALY":59.7722,"EPHEMERIS_TYPE":0,"CLASSIFICATION_TYPE":"U","NORAD_CAT_ID":66179,"ELEMENT_SET_NO":999,"REV_AT_EPOCH":188,"BSTAR":0.0034164,"MEAN_MOTION_DOT":0.00693407,"MEAN_MOTION_DDOT":0},{"OBJECT_NAME":"STARLINK-35335","OBJECT_ID":"2025-243D","EPOCH":"2025-11-07T16:04:57.169632","MEAN_MOTION":15.80332751,"ECCENTRICITY":0.002036,"INCLINATION":53.1526,"RA_OF_ASC_NODE":96.2097,"ARG_OF_PERICENTER":218.028,"MEAN_ANOMALY":141.9307,"EPHEMERIS_TYPE":0,"CLASSIFICATION_TYPE":"U","NORAD_CAT_ID":66180,"ELEMENT_SET_NO":999,"REV_AT_EPOCH":191,"BSTAR":0.0067467,"MEAN_MOTION_DOT":0.01483595,"MEAN_MOTION_DDOT":0},{"OBJECT_NAME":"STARLINK-35342","OBJECT_ID":"2025-243E","EPOCH":"2025-11-07T19:08:38.461632","MEAN_MOTION":15.7586159,"ECCENTRICITY":0.0002273,"INCLINATION":53.1533,"RA_OF_ASC_NODE":95.5839,"ARG_OF_PERICENTER":28.499,"MEAN_ANOMALY":331.6154,"EPHEMERIS_TYPE":0,"CLASSIFICATION_TYPE":"U","NORAD_CAT_ID":66181,"ELEMENT_SET_NO":999,"REV_AT_EPOCH":193,"BSTAR":-0.0038824,"MEAN_MOTION_DOT":-0.00572858,"MEAN_MOTION_DDOT":0},{"OBJECT_NAME":"STARLINK-35333","OBJECT_ID":"2025-243F","EPOCH":"2025-11-07T16:05:57.763680","MEAN_MOTION":15.78484849,"ECCENTRICITY":0.0009766,"INCLINATION":53.153,"RA_OF_ASC_NODE":96.2144,"ARG_OF_PERICENTER":275.503,"MEAN_ANOMALY":84.4877,"EPHEMERIS_TYPE":0,"CLASSIFICATION_TYPE":"U","NORAD_CAT_ID":66182,"ELEMENT_SET_NO":999,"REV_AT_EPOCH":191,"BSTAR":-0.00013283,"MEAN_MOTION_DOT":-0.00024218,"MEAN_MOTION_DDOT":0},{"OBJECT_NAME":"STARLINK-35310","OBJECT_ID":"2025-243G","EPOCH":"2025-11-07T19:09:06.267744","MEAN_MOTION":15.76358087,"ECCENTRICITY":0.0003068,"INCLINATION":53.1532,"RA_OF_ASC_NODE":95.5863,"ARG_OF_PERICENTER":317.1755,"MEAN_ANOMALY":42.9026,"EPHEMERIS_TYPE":0,"CLASSIFICATION_TYPE":"U","NORAD_CAT_ID":66183,"ELEMENT_SET_NO":999,"REV_AT_EPOCH":193,"BSTAR":-0.013138,"MEAN_MOTION_DOT":-0.01851319,"MEAN_MOTION_DDOT":0},{"OBJECT_NAME":"STARLINK-35317","OBJECT_ID":"2025-243H","EPOCH":"2025-11-07T16:12:42.863040","MEAN_MOTION":15.76592857,"ECCENTRICITY":0.0001796,"INCLINATION":53.1529,"RA_OF_ASC_NODE":96.2465,"ARG_OF_PERICENTER":4.0499,"MEAN_ANOMALY":356.0536,"EPHEMERIS_TYPE":0,"CLASSIFICATION_TYPE":"U","NORAD_CAT_ID":66184,"ELEMENT_SET_NO":999,"REV_AT_EPOCH":191,"BSTAR":-4.6771e-5,"MEAN_MOTION_DOT":-8.256e-5,"MEAN_MOTION_DDOT":0},{"OBJECT_NAME":"STARLINK-35377","OBJECT_ID":"2025-243J","EPOCH":"2025-11-07T05:34:29.072352","MEAN_MOTION":15.80560768,"ECCENTRICITY":0.0011233,"INCLINATION":53.1511,"RA_OF_ASC_NODE":98.4609,"ARG_OF_PERICENTER":213.3629,"MEAN_ANOMALY":146.6687,"EPHEMERIS_TYPE":0,"CLASSIFICATION_TYPE":"U","NORAD_CAT_ID":66185,"ELEMENT_SET_NO":999,"REV_AT_EPOCH":184,"BSTAR":0.0068401,"MEAN_MOTION_DOT":0.01513157,"MEAN_MOTION_DDOT":0},{"OBJECT_NAME":"STARLINK-35365","OBJECT_ID":"2025-243K","EPOCH":"2025-11-07T19:17:18.473856","MEAN_MOTION":15.77117801,"ECCENTRICITY":0.0013148,"INCLINATION":53.154,"RA_OF_ASC_NODE":95.6269,"ARG_OF_PERICENTER":178.6158,"MEAN_ANOMALY":181.4902,"EPHEMERIS_TYPE":0,"CLASSIFICATION_TYPE":"U","NORAD_CAT_ID":66186,"ELEMENT_SET_NO":999,"REV_AT_EPOCH":193,"BSTAR":0.0013016,"MEAN_MOTION_DOT":0.00222913,"MEAN_MOTION_DDOT":0},{"OBJECT_NAME":"STARLINK-35350","OBJECT_ID":"2025-243L","EPOCH":"2025-11-07T19:16:19.054848","MEAN_MOTION":15.76682764,"ECCENTRICITY":0.0003364,"INCLINATION":53.1531,"RA_OF_ASC_NODE":95.6211,"ARG_OF_PERICENTER":27.7172,"MEAN_ANOMALY":332.4028,"EPHEMERIS_TYPE":0,"CLASSIFICATION_TYPE":"U","NORAD_CAT_ID":66187,"ELEMENT_SET_NO":999,"REV_AT_EPOCH":193,"BSTAR":-0.0086845,"MEAN_MOTION_DOT":-0.01253281,"MEAN_MOTION_DDOT":0},{"OBJECT_NAME":"STARLINK-35041","OBJECT_ID":"2025-243M","EPOCH":"2025-11-07T19:14:15.683424","MEAN_MOTION":15.76491875,"ECCENTRICITY":3.74e-5,"INCLINATION":53.1531,"RA_OF_ASC_NODE":95.6114,"ARG_OF_PERICENTER":47.1668,"MEAN_ANOMALY":312.9385,"EPHEMERIS_TYPE":0,"CLASSIFICATION_TYPE":"U","NORAD_CAT_ID":66188,"ELEMENT_SET_NO":999,"REV_AT_EPOCH":193,"BSTAR":-0.0059976,"MEAN_MOTION_DOT":-0.00877048,"MEAN_MOTION_DDOT":0},{"OBJECT_NAME":"STARLINK-34694","OBJECT_ID":"2025-243N","EPOCH":"2025-11-07T19:13:13.501344","MEAN_MOTION":15.76369441,"ECCENTRICITY":6.08e-5,"INCLINATION":53.1531,"RA_OF_ASC_NODE":95.6066,"ARG_OF_PERICENTER":25.2739,"MEAN_ANOMALY":334.8311,"EPHEMERIS_TYPE":0,"CLASSIFICATION_TYPE":"U","NORAD_CAT_ID":66189,"ELEMENT_SET_NO":999,"REV_AT_EPOCH":193,"BSTAR":-0.0072013,"MEAN_MOTION_DOT":-0.01045909,"MEAN_MOTION_DDOT":0}]
